CUTE-1 (CO-55)          
1 27844U 03031E   25212.88583838  .00000329  00000+0  16219-3 0  9990
2 27844  98.6768 220.4860 0010429  41.5816 318.6154 14.24030363146111
CUBESAT XI-IV (CO-57)   
1 27848U 03031J   25212.50728791  .00000284  00000+0  14447-3 0  9993
2 27848  98.6794 220.0785 0010578  58.4915 301.7296 14.23360135145759
MOZHAYETS 4 (RS-22)     
1 27939U 03042A   25212.87514913  .00001173  00000+0  19312-3 0  9999
2 27939  98.3327  23.6049 0010973 198.4057 296.8608 14.72456977168525
IRS-P6 (RESOURCESAT-1)  
1 28051U 03046A   25212.80939285  .00000096  00000+0  46453-4 0  9995
2 28051  98.2379 259.2575 0063323 222.3271 267.6395 14.35995195134576
SAUDISAT 2              
1 28371U 04025F   25212.90480630  .00000311  00000+0  80905-4 0  9994
2 28371  98.5287 200.0277 0024432 197.9079 162.1260 14.56357379119163
COSMOS 2407             
1 28380U 04028A   25212.84021964  .00000055  00000+0  40207-4 0  9997
2 28380  82.9630 312.0629 0040469  69.2951  52.7893 13.76295533 56008
COSMOS 2414             
1 28521U 05002A   25212.58247926  .00000062  00000+0  38863-4 0  9999
2 28521  82.9497 286.1248 0040678 161.7739 198.4894 13.87881473 39341
INMARSAT 4-F1           
1 28628U 05009A   25212.49905606  .00000036  00000+0  00000+0 0  9998
2 28628   4.7483  42.3965 0001855 104.1082 160.6085  1.00272639 74454
HAMSAT (VO-52)          
1 28650U 05017B   25212.59493437  .00005507  00000+0  38430-3 0  9997
2 28650  98.0046 217.6920 0022083  44.6932 315.6068 15.05614595 98456
NOAA 18                 
1 28654U 05018A   25212.85771079  .00000088  00000+0  69922-4 0  9992
2 28654  98.8410 291.7436 0013811 345.5641  14.5135 14.13623119 41130
SJ-7                    
1 28737U 05024A   25212.58801673  .00008853  00000+0  47098-3 0  9992
2 28737  97.7580 229.9257 0019411  64.7695 295.5546 15.15336161 99370
CUBESAT XI-V            
1 28895U 05043F   25212.34781268  .00001757  00000+0  29324-3 0  9997
2 28895  98.2565 357.3673 0015343 139.5103 220.7247 14.71159694 54551
CLOUDSAT                
1 29107U 06016A   25212.81966134  .00001295  00000+0  15755-3 0  9994
2 29107  98.4222 226.9488 0004040 292.8330  67.2457 14.85355102 27084
CALIPSO                 
1 29108U 06016B   25212.86582697  .00001183  00000+0  21398-3 0  9994
2 29108  98.4490 212.7325 0001258 111.0970 249.0368 14.68329168 26045
HINODE (SOLAR-B)        
1 29479U 06041A   25212.62976427  .00000829  00000+0  15289-3 0  9993
2 29479  98.0715 228.3421 0016664 221.2792 138.7154 14.67992258  7833
METOP-A                 
1 29499U 06044A   25212.55966534  .00001501  00000+0  18349-3 0  9996
2 29499  98.3313 304.7813 0178839  10.9867  53.5668 14.74219756978187
SHIJIAN-6 02B (SJ-6 02B)
1 29506U 06046B   25212.82561628  .00002181  00000+0  18009-3 0  9990
2 29506  97.7051 239.8321 0008938  59.8919 300.3189 14.99995617 22693
DMSP 5D-3 F17 (USA 191) 
1 29522U 06050A   25212.83237604  .00000091  00000+0  69810-4 0  9993
2 29522  98.7397 220.9706 0008969 248.5675 111.4542 14.14843859967119
LAPAN-TUBSAT            
1 29709U 07001A   25212.87382472  .00000599  00000+0  76079-4 0  9993
2 29709  98.1128 200.3687 0013119 143.3049 216.9066 14.85393523  3605
HAIYANG-1B              
1 31113U 07010A   25212.89832999  .00000105  00000+0  55651-4 0  9997
2 31113  98.3167 202.7840 0014828  72.5710 287.7093 14.30906188955569
BEIDOU-2 M1             
1 31115U 07011A   25211.42976369  .00000044  00000+0  00000+0 0  9993
2 31115  51.0525 229.9711 0001827 317.8522  42.1678  1.77349461 70443
CAPE-1                  
1 31130U 07012P   25212.88909558  .00002100  00000+0  39404-3 0  9997
2 31130  98.4008 174.9301 0085247 351.6740   8.3042 14.63542508971468
CBERS 2B                
1 32062U 07042A   25212.87217493  .00000219  00000+0  80813-4 0  9994
2 32062  98.3499 158.9098 0030306 217.7514 207.9453 14.41212212938602
COSMO-SKYMED 2          
1 32376U 07059A   25212.82360565  .00000496  00000+0  68862-4 0  9991
2 32376  97.8893  36.0681 0001356  90.6129 269.5240 14.82156332954622
CARTOSAT-2A             
1 32783U 08021A   25212.83126687  .00000776  00000+0  11237-3 0  9993
2 32783  97.8119 266.7022 0012541  75.7113 284.5491 14.78757969931540
CUTE-1.7+APD II (CO-65) 
1 32785U 08021C   25212.54399381  .00006657  00000+0  47469-3 0  9996
2 32785  97.7879 184.1159 0010590  43.9158 316.2907 15.04857304936898
COMPASS-1               
1 32787U 08021E   25212.46656614  .00063153  00000+0  11264-2 0  9991
2 32787  97.6450 205.6203 0006582 159.6103 200.5411 15.49848040940272
SEEDS II (CO-66)        
1 32791U 08021J   25212.86880064  .00013745  00000+0  64478-3 0  9996
2 32791  97.7310 194.1227 0003511  25.2325 334.9080 15.19781225938510
YUBILEINY (RS-30)       
1 32953U 08025A   25212.87425866  .00000031  00000+0  15526-3 0  9990
2 32953  82.5024 194.6572 0018052 293.7268  66.1918 12.43166696780035
FENGYUN 3A              
1 32958U 08026A   25212.82897416  .00000083  00000+0  60096-4 0  9995
2 32958  98.6489 155.3385 0008308 338.6405  21.4424 14.19458376890069
HUANJING 1A (HJ-1A)     
1 33320U 08041A   25212.90664466  .00001422  00000+0  18135-3 0  9996
2 33320  97.6431 206.9067 0020926 108.6221 251.7268 14.82823899911020
HUANJING 1B (HJ-1B)     
1 33321U 08041B   25212.88536339  .00001036  00000+0  13430-3 0  9995
2 33321  97.6313 210.9025 0037761 152.2774 208.0463 14.82343728911033
SHIJIAN-6 03A (SJ-6 03A)
1 33408U 08053A   25212.58329230  .00006764  00000+0  39157-3 0  9998
2 33408  97.8726 230.1847 0013336  39.4856 320.7343 15.12506454914420
SHIJIAN-6 03B (SJ-6 03B)
1 33409U 08053B   25212.85107197  .00002281  00000+0  17493-3 0  9994
2 33409  97.8706 222.4950 0020568  42.1008 318.1792 15.02705060914616
CHUANGXIN 1-02 (CX-1-02)
1 33434U 08056B   25212.85939687  .00000071  00000+0  44620-4 0  9990
2 33434  98.6451 236.8022 0014322   5.8851 354.2497 14.30055793873216
STARS (KUKAI)           
1 33498U 09002G   25212.36117365  .00004597  00000+0  45704-3 0  9999
2 33498  98.1229 143.1114 0010053 139.9820 220.2141 14.92165420890571
KKS-1 (KISEKI)          
1 33499U 09002H   25212.79282490  .00001514  00000+0  19889-3 0  9990
2 33499  98.1160 125.5641 0006735 244.2758 115.7759 14.81757731889152
NOAA 19                 
1 33591U 09005A   25212.80180652  .00000156  00000+0  10736-3 0  9998
2 33591  98.9945 277.7927 0013261 212.4644 147.5713 14.13396723849484
UK-DMC 2                
1 35683U 09041C   25212.83599859  .00000898  00000+0  13998-3 0  9994
2 35683  97.8386 351.7111 0001199  97.4129 262.7217 14.75217265859378
METEOR-M 1              
1 35865U 09049A   25212.88940572  .00000106  00000+0  66388-4 0  9995
2 35865  98.6887 173.5478 0002834 134.4639 225.6771 14.23035296823836
OCEANSAT-2              
1 35931U 09051A   25212.79262989 -.00000208  00000+0 -11675-3 0  9994
2 35931  98.2234 226.9355 0016658  63.2871 296.9999 13.99597279834511
SWISSCUBE               
1 35932U 09051B   25212.66666411  .00001121  00000+0  23626-3 0  9991
2 35932  98.4239 109.8660 0007903 123.0333 237.1627 14.61436989842365
BEESAT-1                
1 35933U 09051C   25212.59367780  .00000934  00000+0  20105-3 0  9991
2 35933  98.4170 110.0528 0006142 133.1380 227.0334 14.60835983842364
ITUPSAT1                
1 35935U 09051E   25212.44784698  .00000810  00000+0  18042-3 0  9998
2 35935  98.4263 109.4021 0008161 144.7457 215.4283 14.59626543841939
DMSP 5D-3 F18 (USA 210) 
1 35951U 09057A   25212.91405198  .00000263  00000+0  15984-3 0  9993
2 35951  98.8630 190.1127 0012335  82.0126 278.2447 14.14662516814286
PROBA-2                 
1 36037U 09059B   25212.51057691  .00000240  00000+0  66732-4 0  9991
2 36037  98.2395  35.4567 0013029 185.6428 174.4624 14.54581959834909
YAOGAN-7                
1 36110U 09069A   25212.68086935  .00000554  00000+0  84904-4 0  9994
2 36110  98.0486  94.8338 0024758 355.4457   4.6524 14.77475561842330
XIWANG-1 (HOPE-1)       
1 36122U 09072B   25212.45014437 -.00000007  00000+0  97132-4 0  9995
2 36122 100.3515 167.1397 0006837 245.3493 114.6909 13.16426406750802
RADUGA-1M 2             
1 36358U 10002A   25212.33705852 -.00000089  00000+0  00000+0 0  9999
2 36358   2.7802  82.9548 0003969 249.1341 114.2178  0.98969014 46856
COSMOS 2463             
1 36519U 10017A   25212.88686954  .00000056  00000+0  45261-4 0  9991
2 36519  82.9619 125.0726 0034981 300.2913 130.4901 13.71634482764113
CARTOSAT-2B             
1 36795U 10035A   25212.79927636  .00000739  00000+0  10725-3 0  9996
2 36795  97.8056 266.0018 0012681 145.4244 214.7794 14.78771594812583
AISSAT 1                
1 36797U 10035C   25212.64398812  .00002096  00000+0  19587-3 0  9993
2 36797  98.1279  95.4162 0010459  44.8645 315.3418 14.95270632816286
TISAT 1                 
1 36799U 10035E   25212.76266931  .00013505  00000+0  67328-3 0  9997
2 36799  98.0541 130.0966 0001075 285.0523  75.0590 15.17681602819085
YAOGAN-10               
1 36834U 10038A   25212.77603378  .00000714  00000+0  91607-4 0  9997
2 36834  97.9250 233.5125 0001658  90.7364  17.0570 14.84275394809732
SHIJIAN-6 04B (SJ-6 04B)
1 37180U 10051B   25212.85227152  .00000998  00000+0  88828-4 0  9993
2 37180  97.8614 210.2721 0009799 304.9526  55.0775 14.98345517807713
FENGYUN 3B              
1 37214U 10059A   25212.86539823  .00000086  00000+0  67966-4 0  9999
2 37214  99.0102 251.7448 0022371  16.9377  34.9219 14.14742169762179
COSMO-SKYMED 4          
1 37216U 10060A   25212.83626887  .00000498  00000+0  69055-4 0  9995
2 37216  97.8891  36.0828 0001378  87.5048 272.6323 14.82156340797171
O/OREOS (USA 219)       
1 37224U 10062C   25212.07273404  .00002357  00000+0  23991-3 0  9999
2 37224  71.9709  86.6310 0016079 312.6150  47.3662 14.91671841 68721
ELEKTRO-L 1 (GOMS 2)    
1 37344U 11001A   25212.40067291 -.00000187  00000+0  00000+0 0  9990
2 37344   8.9534  57.7080 0004681  37.0976 335.2597  1.00242687 53271
